STARLINK-1310_new
1 15378C 20019U   21326.15452624  .00000722  00000-0  48353-4 0  3264
2 15378  53.0546   8.0579 0001294  62.2773 213.4383 15.06400344    16
STARLINK-1310_old
1 25378C 20019U   21325.12291163  .00001388  00000-0  93042-4 0  3252
2 25378  53.0551  12.6890 0001279  64.2167  13.9463 15.06390359    17
